OBJECT_NAME,OBJECT_ID,EPOCH,MEAN_MOTION,ECCENTRICITY,INCLINATION,RA_OF_ASC_NODE,ARG_OF_PERICENTER,MEAN_ANOMALY,EPHEMERIS_TYPE,CLASSIFICATION_TYPE,NORAD_CAT_ID,ELEMENT_SET_NO,REV_AT_EPOCH,BSTAR,MEAN_MOTION_DOT,MEAN_MOTION_DDOT
STARLINK-3957,2022-051AF,2026-06-07T11:06:10.760256,15.08833055,.0001355,53.1745,76.0759,85.3366,274.7780,0,U,52562,999,22513,-.8877E-6,-.302E-5,0
STARLINK-3942,2022-051AG,2026-06-07T02:59:19.303008,15.08835513,.0001694,53.1720,92.5894,38.4559,321.6553,0,U,52563,999,22487,-.96679E-4,-.1826E-4,0
STARLINK-3959,2022-051AH,2026-06-07T12:22:25.889088,15.08795710,.0001627,53.1713,90.8486,96.4337,263.6840,0,U,52564,999,22493,.45544E-3,.6959E-4,0
STARLINK-3911,2022-051AJ,2026-06-07T11:11:29.539968,15.08809576,.0001264,53.1704,76.0623,97.2098,262.9037,0,U,52565,999,22513,.32901E-3,.4948E-4,0
STARLINK-3938,2022-051AK,2026-06-07T02:16:58.183968,15.08797159,.0001733,53.1761,92.7290,86.8779,273.2411,0,U,52566,999,22487,-.26212E-3,-.4453E-4,0
STARLINK-3929,2022-051AL,2026-06-07T01:28:32.826720,15.08842194,.0001388,53.1744,77.8765,98.2556,261.8593,0,U,52567,999,22507,.63083E-4,.716E-5,0
STARLINK-3930,2022-051AM,2026-06-06T12:29:34.478880,15.08843493,.0000994,53.1759,80.3099,108.7155,251.3944,0,U,52568,999,22499,-.44352E-5,-.358E-5,0
STARLINK-3927,2022-051AN,2026-06-07T01:23:15.899424,15.08828813,.000129,53.1762,77.8945,92.6506,267.4633,0,U,52569,999,22507,.37661E-4,.311E-5,0
STARLINK-3901,2022-051AQ,2026-06-06T12:34:52.841280,15.08825525,.0001178,53.1756,80.2936,85.2500,274.8626,0,U,52574,999,22499,.28897E-3,.4312E-4,0
STARLINK-3932,2022-051AS,2026-06-07T12:00:30.803328,15.08867101,.0000123,53.1742,75.9044,156.6272,203.4725,0,U,52576,999,22514,.14314E-3,.1993E-4,0
STARLINK-3836,2022-051AT,2026-06-07T13:14:01.368672,15.08831914,.0001463,53.1728,90.6751,83.5539,276.5619,0,U,52577,999,22494,.69496E-4,.818E-5,0
STARLINK-3833,2022-051AU,2026-06-07T02:11:37.635648,15.08806998,.0001369,53.1718,92.7455,86.5568,273.5580,0,U,52578,999,22487,.32563E-3,.4894E-4,0
STARLINK-3893,2022-051AV,2026-06-07T20:00:04.000032,15.28787923,.0001136,53.2191,88.5048,87.0012,171.4519,0,U,52579,999,573,.26674E-1,.819347E-2,0
STARLINK-3919,2022-051AW,2026-06-07T13:10:06.449664,15.08837431,.0001503,53.1736,90.6980,91.3468,268.7695,0,U,52580,999,22494,.6713E-4,.78E-5,0
STARLINK-3915,2022-051AX,2026-06-07T11:53:54.006144,15.08819461,.0001215,53.1705,75.9236,82.5554,277.5576,0,U,52581,999,22514,-.4144E-4,-.947E-5,0
STARLINK-3895,2022-051AZ,2026-06-07T11:48:36.353088,15.08806296,.0001969,53.1710,75.9426,95.5624,264.5592,0,U,52583,999,22514,.60739E-3,.9383E-4,0
STARLINK-3922,2022-051BA,2026-06-07T11:59:10.408128,15.08833557,.0001602,53.1753,75.9093,83.7370,276.3804,0,U,52584,999,22514,.45195E-4,.431E-5,0
STARLINK-3906,2022-051BB,2026-06-07T11:32:40.929792,15.08805167,.0001164,53.1700,75.9556,98.9591,261.1532,0,U,52585,999,22514,.46499E-3,.7113E-4,0
STARLINK-3910,2022-051BC,2026-06-07T11:43:17.690880,15.08804773,.0001278,53.1701,75.9588,97.2923,262.8214,0,U,52586,999,22514,.47516E-3,.7275E-4,0
STARLINK-3867,2022-051BD,2026-06-07T11:12:51.596640,15.08821218,.0002053,53.1734,75.9118,83.2160,276.9066,0,U,52587,999,22514,.98725E-5,-.131E-5,0
STARLINK-3917,2022-051BE,2026-06-07T19:24:19.647072,15.08833667,.0001053,53.1684,74.5216,77.2971,282.8138,0,U,52588,999,22519,-.55483E-4,-.1171E-4,0
STARLINK-4019,2022-052A,2026-06-07T12:22:21.373824,15.08830589,.0001117,53.1708,240.8379,85.5823,274.5296,0,U,52598,999,22514,-.77469E-5,-.411E-5,0
STARLINK-4024,2022-052B,2026-06-07T12:04:29.292384,15.08827848,.0001037,53.1705,235.9989,88.2145,271.8965,0,U,52599,999,22521,.94E-4,.1208E-4,0
STARLINK-4026,2022-052C,2026-06-07T11:32:40.585056,15.08833723,.0001136,53.1722,235.9900,99.9532,260.1588,0,U,52600,999,22521,-.39465E-4,-.916E-5,0
STARLINK-4027,2022-052D,2026-06-07T11:43:16.351680,15.08830408,.0001409,53.1747,235.9603,90.3519,269.7634,0,U,52601,999,22521,.65716E-4,.758E-5,0
STARLINK-4012,2022-052E,2026-06-07T11:37:58.442016,15.08834350,.0001256,53.1743,235.9767,75.1291,284.9839,0,U,52602,999,22521,-.99665E-5,-.447E-5,0
STARLINK-4016,2022-052F,2026-06-07T12:53:32.340768,15.08839467,.0000922,53.1697,235.7492,87.1572,272.9525,0,U,52603,999,22522,.26973E-4,.142E-5,0
STARLINK-4013,2022-052G,2026-06-07T11:27:22.298688,15.08837296,.0001004,53.1721,236.0070,93.0976,267.0131,0,U,52604,999,22441,.30524E-4,.198E-5,0
STARLINK-4000,2022-052H,2026-06-07T11:46:36.683904,15.08836994,.0001689,53.1725,240.7262,45.9990,314.1140,0,U,52605,999,22434,.29625E-4,.183E-5,0
STARLINK-3928,2022-052J,2026-06-07T11:22:04.687104,15.08834995,.0001271,53.1718,236.0281,86.1271,273.9866,0,U,52606,999,22441,-.17138E-4,-.561E-5,0
