[ {"name": "STARLINK-3957", "line1": "1 52562U 22051AF  26158.46262454 -.00000302  00000+0 -88770-6 0  9997", "line2": "2 52562  53.1745  76.0759 0001355  85.3366 274.7780 15.08833055225132"}, {"name": "STARLINK-3942", "line1": "1 52563U 22051AG  26158.12452897 -.00001826  00000+0 -96679-4 0  9990", "line2": "2 52563  53.1720  92.5894 0001694  38.4559 321.6553 15.08835513224879"}, {"name": "STARLINK-3959", "line1": "1 52564U 22051AH  26158.51557742  .00006959  00000+0  45544-3 0  9993", "line2": "2 52564  53.1713  90.8486 0001627  96.4337 263.6840 15.08795710224939"}, {"name": "STARLINK-3911", "line1": "1 52565U 22051AJ  26158.46631412  .00004948  00000+0  32901-3 0  9994", "line2": "2 52565  53.1704  76.0623 0001264  97.2098 262.9037 15.08809576225138"}, {"name": "STARLINK-3938", "line1": "1 52566U 22051AK  26158.09511787 -.00004453  00000+0 -26212-3 0  9997", "line2": "2 52566  53.1761  92.7290 0001733  86.8779 273.2411 15.08797159224872"}, {"name": "STARLINK-3929", "line1": "1 52567U 22051AL  26158.06149105  .00000716  00000+0  63083-4 0  9990", "line2": "2 52567  53.1744  77.8765 0001388  98.2556 261.8593 15.08842194225078"}, {"name": "STARLINK-3930", "line1": "1 52568U 22051AM  26157.52053795 -.00000358  00000+0 -44352-5 0  9993", "line2": "2 52568  53.1759  80.3099 0000994 108.7155 251.3944 15.08843493224995"}, {"name": "STARLINK-3927", "line1": "1 52569U 22051AN  26158.05782291  .00000311  00000+0  37661-4 0  9994", "line2": "2 52569  53.1762  77.8945 0001290  92.6506 267.4633 15.08828813225074"}, {"name": "STARLINK-3901", "line1": "1 52574U 22051AQ  26157.52422270  .00004312  00000+0  28897-3 0  9994", "line2": "2 52574  53.1756  80.2936 0001178  85.2500 274.8626 15.08825525224999"}, {"name": "STARLINK-3932", "line1": "1 52576U 22051AS  26158.50035652  .00001993  00000+0  14314-3 0  9990", "line2": "2 52576  53.1742  75.9044 0000123 156.6272 203.4725 15.08867101225147"}, {"name": "STARLINK-3836", "line1": "1 52577U 22051AT  26158.55140473  .00000818  00000+0  69496-4 0  9991", "line2": "2 52577  53.1728  90.6751 0001463  83.5539 276.5619 15.08831914224946"}, {"name": "STARLINK-3833", "line1": "1 52578U 22051AU  26158.09140782  .00004894  00000+0  32563-3 0  9996", "line2": "2 52578  53.1718  92.7455 0001369  86.5568 273.5580 15.08806998224870"}, {"name": "STARLINK-3893", "line1": "1 52579U 22051AV  26158.83337963  .00819347  00000+0  26674-1 0  9999", "line2": "2 52579  53.2191  88.5048 0001136  87.0012 171.4519 15.28787923  5738"}, {"name": "STARLINK-3919", "line1": "1 52580U 22051AW  26158.54868576  .00000780  00000+0  67130-4 0  9996", "line2": "2 52580  53.1736  90.6980 0001503  91.3468 268.7695 15.08837431224943"}, {"name": "STARLINK-3915", "line1": "1 52581U 22051AX  26158.49576396 -.00000947  00000+0 -41440-4 0  9990", "line2": "2 52581  53.1705  75.9236 0001215  82.5554 277.5576 15.08819461225140"}, {"name": "STARLINK-3895", "line1": "1 52583U 22051AZ  26158.49208742  .00009383  00000+0  60739-3 0  9991", "line2": "2 52583  53.1710  75.9426 0001969  95.5624 264.5592 15.08806296225143"}, {"name": "STARLINK-3922", "line1": "1 52584U 22051BA  26158.49942602  .00000431  00000+0  45195-4 0  9997", "line2": "2 52584  53.1753  75.9093 0001602  83.7370 276.3804 15.08833557225149"}, {"name": "STARLINK-3906", "line1": "1 52585U 22051BB  26158.48102928  .00007113  00000+0  46499-3 0  9997", "line2": "2 52585  53.1700  75.9556 0001164  98.9591 261.1532 15.08805167225148"}, {"name": "STARLINK-3910", "line1": "1 52586U 22051BC  26158.48839920  .00007275  00000+0  47516-3 0  9997", "line2": "2 52586  53.1701  75.9588 0001278  97.2923 262.8214 15.08804773225149"}, {"name": "STARLINK-3867", "line1": "1 52587U 22051BD  26158.46726385 -.00000131  00000+0  98725-5 0  9991", "line2": "2 52587  53.1734  75.9118 0002053  83.2160 276.9066 15.08821218225149"}, {"name": "STARLINK-3917", "line1": "1 52588U 22051BE  26158.80856073 -.00001171  00000+0 -55483-4 0  9997", "line2": "2 52588  53.1684  74.5216 0001053  77.2971 282.8138 15.08833667225192"}, {"name": "STARLINK-4019", "line1": "1 52598U 22052A   26158.51552516 -.00000411  00000+0 -77469-5 0  9997", "line2": "2 52598  53.1708 240.8379 0001117  85.5823 274.5296 15.08830589225145"}, {"name": "STARLINK-4024", "line1": "1 52599U 22052B   26158.50311681  .00001208  00000+0  94000-4 0  9995", "line2": "2 52599  53.1705 235.9989 0001037  88.2145 271.8965 15.08827848225218"}, {"name": "STARLINK-4026", "line1": "1 52600U 22052C   26158.48102529 -.00000916  00000+0 -39465-4 0  9995", "line2": "2 52600  53.1722 235.9900 0001136  99.9532 260.1588 15.08833723225213"}, {"name": "STARLINK-4027", "line1": "1 52601U 22052D   26158.48838370  .00000758  00000+0  65716-4 0  9996", "line2": "2 52601  53.1747 235.9603 0001409  90.3519 269.7634 15.08830408225218"}, {"name": "STARLINK-4012", "line1": "1 52602U 22052E   26158.48470419 -.00000447  00000+0 -99665-5 0  9991", "line2": "2 52602  53.1743 235.9767 0001256  75.1291 284.9839 15.08834350225210"}, {"name": "STARLINK-4016", "line1": "1 52603U 22052F   26158.53717987  .00000142  00000+0  26973-4 0  9993", "line2": "2 52603  53.1697 235.7492 0000922  87.1572 272.9525 15.08839467225220"}, {"name": "STARLINK-4013", "line1": "1 52604U 22052G   26158.47734142  .00000198  00000+0  30524-4 0  9997", "line2": "2 52604  53.1721 236.0070 0001004  93.0976 267.0131 15.08837296224417"}, {"name": "STARLINK-4000", "line1": "1 52605U 22052H   26158.49070236  .00000183  00000+0  29625-4 0  9991", "line2": "2 52605  53.1725 240.7262 0001689  45.9990 314.1140 15.08836994224348"}, {"name": "STARLINK-3928", "line1": "1 52606U 22052J   26158.47366536 -.00000561  00000+0 -17138-4 0  9999", "line2": "2 52606  53.1718 236.0281 0001271  86.1271 273.9866 15.08834995224410"}]